FENGYUN 1C DEB          
1 30229U 99025WN  26163.20164830  .00006457  00000+0  12412-2 0  9996
2 30229  99.0461 245.0928 0035847 203.3348 211.5596 14.63619201 15689
FENGYUN 1C DEB          
1 30231U 99025WQ  26163.11345142  .00000790  00000+0  42185-3 0  9991
2 30231  98.7788 209.3500 0126837 233.6145 181.8320 14.12078335995794
FENGYUN 1C DEB          
1 30232U 99025WR  26162.55867816  .00003067  00000+0  51094-3 0  9995
2 30232  98.6819  17.7708 0133188 148.4745 267.0613 14.65100176 23955
FENGYUN 1C DEB          
1 30234U 99025WT  26162.98549062  .00000413  00000+0  22194-3 0  9995
2 30234  98.6274 173.4776 0064385 274.1889 148.6792 14.17114971   216
FENGYUN 1C DEB          
1 30235U 99025WU  26163.31317812  .00000485  00000+0  27181-3 0  9990
2 30235  98.7359 181.1542 0155508  85.5219 290.8445 14.09035159994508
FENGYUN 1C DEB          
1 30237U 99025WW  26163.85099954  .00005653  00000+0  16778-2 0  9996
2 30237  98.8290 277.8486 0016588 130.6095 352.9135 14.43593098  3206
FENGYUN 1C DEB          
1 30239U 99025WY  26162.49733895 -.00008747  00000+0 -18386-1 0  9991
2 30239  99.4736 256.5399 1415717  76.1945 299.2191 11.42542515565968
FENGYUN 1C DEB          
1 30241U 99025XA  26163.32226314  .00000341  00000+0  20101-3 0  9990
2 30241  99.1738 304.4165 0144617 293.5418 122.7808 14.09749574994704
FENGYUN 1C DEB          
1 30242U 99025XB  26163.86364402  .00000858  00000+0  43948-3 0  9998
2 30242  98.6608 198.7740 0009497 242.7009 297.9010 14.18049776    48
FENGYUN 1C DEB          
1 30243U 99025XC  26163.81410913  .00000440  00000+0  25727-3 0  9995
2 30243  98.6863 174.9852 0011233 327.8875 210.3415 14.13279951998509
FENGYUN 1C DEB          
1 30244U 99025XD  26163.22428868  .00000474  00000+0  26752-3 0  9995
2 30244  99.1283  62.2125 0009807 150.5373 330.7977 14.15272135999131
FENGYUN 1C DEB          
1 30245U 99025XE  26163.75114316  .00001066  00000+0  93155-3 0  9993
2 30245  98.9028 145.4703 0194190 122.7633 239.2398 13.79530905972033
FENGYUN 1C DEB          
1 30246U 99025XF  26162.84267037  .00000056  00000+0  11836-3 0  9996
2 30246  98.6984 285.3212 0369484   4.9542 118.8994 13.37116979945603
FENGYUN 1C DEB          
1 30247U 99025XG  26163.04307638  .00009224  00000+0  13690-2 0  9997
2 30247  98.2713  75.6795 0177462 143.9591 345.0465 14.65077411999321
FENGYUN 1C DEB          
1 30248U 99025XH  26160.55759537  .00012546  00000+0  22778-2 0  9998
2 30248  99.0892   7.9216 0027366 329.6989  30.2629 14.66122324    15
FENGYUN 1C DEB          
1 30249U 99025XJ  26163.06246525  .00012471  00000+0  23832-2 0  9995
2 30249  98.9647 347.3913 0023157 207.4376 279.8890 14.63886602  2009
FENGYUN 1C DEB          
1 30250U 99025XK  26163.79636752  .00000465  00000+0  32646-3 0  9996
2 30250  98.7599 153.5310 0067745  75.8966  45.5425 14.01811935990429
FENGYUN 1C DEB          
1 30251U 99025XL  26163.11177361  .00000739  00000+0  30219-3 0  9997
2 30251  99.0375  13.3445 0051549 162.5930 319.8020 14.29736900  7333
FENGYUN 1C DEB          
1 30252U 99025XM  26163.83499507  .00000579  00000+0  34477-3 0  9998
2 30252  98.7330 178.6512 0068039  86.7389  90.1438 14.10002687995312
FENGYUN 1C DEB          
1 30253U 99025XN  26163.20472530  .00000966  00000+0  90755-3 0  9998
2 30253  98.7408 240.9064 0217876 276.4067 152.1226 13.73765195965050
FENGYUN 1C DEB          
1 30257U 99025XS  26162.97072684  .00000063  00000+0  59738-4 0  9996
2 30257  98.7549 161.6001 0057661 307.4605 107.0392 14.09822841997710
FENGYUN 1C DEB          
1 30259U 99025XU  26163.16557149  .00001925  00000+0  33307-3 0  9995
2 30259  98.7436  27.6978 0242136  77.8722  44.1329 14.52202740 21067
FENGYUN 1C DEB          
1 30263U 99025XY  26162.83385684  .00001542  00000+0  94540-3 0  9997
2 30263  98.9460 279.4594 0145150 216.6746 276.2906 14.02153959985621
FENGYUN 1C DEB          
1 30264U 99025XZ  26163.12815262  .00001300  00000+0  74452-3 0  9993
2 30264  98.9544 221.9725 0108699 139.6083 277.3057 14.08294460991106
FENGYUN 1C DEB          
1 30265U 99025YA  26160.58980200  .00008995  00000+0  17583-2 0  9994
2 30265  98.6717 283.0164 0027814 178.8108 197.7091 14.62877557 10147
FENGYUN 1C DEB          
1 30266U 99025YB  26163.13878859  .00001906  00000+0  95868-3 0  9993
2 30266  99.0287 234.7910 0080963 270.2668 148.9255 14.16022450993568
FENGYUN 1C DEB          
1 30267U 99025YC  26163.16856182  .00002671  00000+0  11439-2 0  9993
2 30267  98.8380 240.4503 0059381  82.4061 278.3857 14.24768529998779
FENGYUN 1C DEB          
1 30270U 99025YF  26163.80358000  .00000139  00000+0  10013-3 0  9999
2 30270  98.6930 176.8999 0007398  19.3811 161.4912 14.11354116999297
FENGYUN 1C DEB          
1 30272U 99025YH  26162.16868905  .00001443  00000+0  75247-3 0  9998
2 30272  98.8872 234.2915 0048407 311.2389  48.4618 14.15540892994084
FENGYUN 1C DEB          
1 30273U 99025YJ  26163.26999051  .00000969  00000+0  64071-3 0  9993
2 30273  98.8297 177.4944 0062572 103.6090 319.1192 14.02968692990749
