OBJECT_NAME,OBJECT_ID,EPOCH,MEAN_MOTION,ECCENTRICITY,INCLINATION,RA_OF_ASC_NODE,ARG_OF_PERICENTER,MEAN_ANOMALY,EPHEMERIS_TYPE,CLASSIFICATION_TYPE,NORAD_CAT_ID,ELEMENT_SET_NO,REV_AT_EPOCH,BSTAR,MEAN_MOTION_DOT,MEAN_MOTION_DDOT
FENGYUN 1C DEB,1999-025WN,2026-06-12T04:50:22.413120,14.63619201,.00358475,99.0461,245.0928,203.3348,211.5596,0,U,30229,999,1568,.1241195E-2,.6457E-4,0
FENGYUN 1C DEB,1999-025WQ,2026-06-12T02:43:22.202688,14.12078335,.01268376,98.7788,209.3500,233.6145,181.8320,0,U,30231,999,99579,.42185203E-3,.79E-5,0
FENGYUN 1C DEB,1999-025WR,2026-06-11T13:24:29.793024,14.65100176,.0133188,98.6819,17.7708,148.4745,267.0613,0,U,30232,999,2395,.51094E-3,.3067E-4,0
FENGYUN 1C DEB,1999-025WT,2026-06-11T23:39:06.389568,14.17114971,.00643856,98.6274,173.4776,274.1889,148.6792,0,U,30234,999,21,.22194264E-3,.413E-5,0
FENGYUN 1C DEB,1999-025WU,2026-06-12T07:30:58.589568,14.09035159,.01555084,98.7359,181.1542,85.5219,290.8445,0,U,30235,999,99450,.2718147E-3,.485E-5,0
FENGYUN 1C DEB,1999-025WW,2026-06-12T20:25:26.360256,14.43593098,.0016588,98.8290,277.8486,130.6095,352.9135,0,U,30237,999,320,.16778E-2,.5653E-4,0
FENGYUN 1C DEB,1999-025WY,2026-06-11T11:56:10.085280,11.42542515,.1415717,99.4736,256.5399,76.1945,299.2191,0,U,30239,999,56596,-.18386E-1,-.8747E-4,0
FENGYUN 1C DEB,1999-025XA,2026-06-12T07:44:03.535296,14.09749574,.0144617,99.1738,304.4165,293.5418,122.7808,0,U,30241,999,99470,.20101493E-3,.341E-5,0
FENGYUN 1C DEB,1999-025XB,2026-06-12T20:43:38.843328,14.18049776,.0009497,98.6608,198.7740,242.7009,297.9010,0,U,30242,999,4,.43948E-3,.858E-5,0
FENGYUN 1C DEB,1999-025XC,2026-06-12T19:32:19.028832,14.13279951,.0011233,98.6863,174.9852,327.8875,210.3415,0,U,30243,999,99850,.25727E-3,.44E-5,0
FENGYUN 1C DEB,1999-025XD,2026-06-12T05:22:58.541952,14.15272135,.00098079,99.1283,62.2125,150.5373,330.7977,0,U,30244,999,99913,.26752106E-3,.474E-5,0
FENGYUN 1C DEB,1999-025XE,2026-06-12T18:01:38.769024,13.79530905,.019419,98.9028,145.4703,122.7633,239.2398,0,U,30245,999,97203,.93155E-3,.1066E-4,0
FENGYUN 1C DEB,1999-025XF,2026-06-11T20:13:26.719968,13.37116979,.03694847,98.6984,285.3212,4.9542,118.8994,0,U,30246,999,94560,.11836074E-3,.56E-6,0
FENGYUN 1C DEB,1999-025XG,2026-06-12T01:02:01.799232,14.65077411,.01774626,98.2713,75.6795,143.9591,345.0465,0,U,30247,999,99932,.1368992E-2,.9224E-4,0
FENGYUN 1C DEB,1999-025XH,2026-06-09T13:22:56.239968,14.66122324,.00273661,99.0892,7.9216,329.6989,30.2629,0,U,30248,999,1,.22778025E-2,.12546E-3,0
FENGYUN 1C DEB,1999-025XJ,2026-06-12T01:29:56.997600,14.63886602,.00231575,98.9647,347.3913,207.4376,279.8890,0,U,30249,999,200,.23832121E-2,.12471E-3,0
FENGYUN 1C DEB,1999-025XK,2026-06-12T19:06:46.153728,14.01811935,.0067745,98.7599,153.5310,75.8966,45.5425,0,U,30250,999,99042,.32646E-3,.465E-5,0
FENGYUN 1C DEB,1999-025XL,2026-06-12T02:40:57.239904,14.29736900,.00515496,99.0375,13.3445,162.5930,319.8020,0,U,30251,999,733,.3021927E-3,.739E-5,0
FENGYUN 1C DEB,1999-025XM,2026-06-12T20:02:23.574048,14.10002687,.0068039,98.7330,178.6512,86.7389,90.1438,0,U,30252,999,99531,.34477E-3,.579E-5,0
FENGYUN 1C DEB,1999-025XN,2026-06-12T04:54:48.265920,13.73765195,.02178762,98.7408,240.9064,276.4067,152.1226,0,U,30253,999,96505,.90755125E-3,.966E-5,0
FENGYUN 1C DEB,1999-025XS,2026-06-11T23:17:50.798976,14.09822841,.00576616,98.7549,161.6001,307.4605,107.0392,0,U,30257,999,99771,.59738315E-4,.63E-6,0
FENGYUN 1C DEB,1999-025XU,2026-06-12T03:58:25.376736,14.52202740,.02421365,98.7436,27.6978,77.8722,44.1329,0,U,30259,999,2106,.33307341E-3,.1925E-4,0
FENGYUN 1C DEB,1999-025XY,2026-06-11T20:00:45.230976,14.02153959,.01451507,98.9460,279.4594,216.6746,276.2906,0,U,30263,999,98562,.94539761E-3,.1542E-4,0
FENGYUN 1C DEB,1999-025XZ,2026-06-12T03:04:32.386368,14.08294460,.01086996,98.9544,221.9725,139.6083,277.3057,0,U,30264,999,99110,.74452016E-3,.13E-4,0
FENGYUN 1C DEB,1999-025YA,2026-06-09T14:09:18.892800,14.62877557,.00278145,98.6717,283.0164,178.8108,197.7091,0,U,30265,999,1014,.17582978E-2,.8995E-4,0
FENGYUN 1C DEB,1999-025YB,2026-06-12T03:19:51.334176,14.16022450,.00809636,99.0287,234.7910,270.2668,148.9255,0,U,30266,999,99356,.95867673E-3,.1906E-4,0
FENGYUN 1C DEB,1999-025YC,2026-06-12T04:02:43.741248,14.24768529,.00593817,98.8380,240.4503,82.4061,278.3857,0,U,30267,999,99877,.11439189E-2,.2671E-4,0
FENGYUN 1C DEB,1999-025YF,2026-06-12T19:17:09.312000,14.11354116,.0007398,98.6930,176.8999,19.3811,161.4912,0,U,30270,999,99929,.10013E-3,.139E-5,0
FENGYUN 1C DEB,1999-025YH,2026-06-11T04:02:54.733920,14.15540892,.00484073,98.8872,234.2915,311.2389,48.4618,0,U,30272,999,99408,.75247443E-3,.1443E-4,0
FENGYUN 1C DEB,1999-025YJ,2026-06-12T06:28:47.180064,14.02968692,.00625727,98.8297,177.4944,103.6090,319.1192,0,U,30273,999,99074,.64071006E-3,.969E-5,0
